#cP2016 12 12  0  0  0.00000000      96 ORBIT IGb08 HLM  IGS
## 1927  86400.00000000   900.00000000 57734 0.0000000000000
+   32   G01G02G03G04G05G06G07G08G09G10G11G12G13G14G15G16G17
+        G18G19G20G21G22G23G24G25G26G27G28G29G30G31G32  0  0
+          0  0  0  0  0  0  0  0  0  0  0  0  0  0  0  0  0
+          0  0  0  0  0  0  0  0  0  0  0  0  0  0  0  0  0
+          0  0  0  0  0  0  0  0  0  0  0  0  0  0  0  0  0
++         2  2  2  0  2  2  2  2  2  2  2  2  2  2  2  2  2
++         2  2  2  2  2  3  2  2  2  2  2  2  2  2  2  0  0
++         0  0  0  0  0  0  0  0  0  0  0  0  0  0  0  0  0
++         0  0  0  0  0  0  0  0  0  0  0  0  0  0  0  0  0
++         0  0  0  0  0  0  0  0  0  0  0  0  0  0  0  0  0
%c G  cc GPS ccc cccc cccc cccc cccc ccccc ccccc ccccc ccccc
%c cc cc ccc ccc cccc cccc cccc cccc ccccc ccccc ccccc ccccc
%f  1.2500000  1.025000000  0.00000000000  0.000000000000000
%f  0.0000000  0.000000000  0.00000000000  0.000000000000000
%i    0    0    0    0      0      0      0      0         0
%i    0    0    0    0      0      0      0      0         0
/* RAPID ORBIT COMBINATION FROM WEIGHTED AVERAGE OF:        
/* cod emr esa gfz jpl ngs sio usn whu                      
/* REFERENCED TO IGS TIME (IGST) AND TO WEIGHTED MEAN POLE: 
/* PCV:IGS08_1926 OL/AL:FES2004  NONE     Y  ORB:CMB CLK:CMB
*  2016 12 12 12  0  0.00000000
PG01  22027.216697  14457.497994  -4390.243797     43.378561  7  3  8 101       
PG02  -3535.549619 -17529.709421  20215.784664    511.704357  8  5  3  89       
PG03  12714.801687  16361.103363  16611.377391   -102.384140  6  7  2  98       
PG04  16399.472561  17329.831187 -12309.672522 999999.999999
PG05  -2250.652442 -26353.658171   -269.243574    -72.606001  7  6  5  81       
PG06   9809.498548 -11860.767605  21657.176127    284.943892  6  2  3  73       
PG07  24356.366466   5182.772838  -9650.325251    402.791872 11  5  7  86       
PG08   9332.133688  11883.735841 -21784.549774    -42.173823  3  7  3  77       
PG09  23046.725738  -5299.755154  12074.569405    262.153958  5  6  3  86       
PG10 -11272.496440  16328.551607 -17598.222323   -115.992435  6  4  3 127       
PG11  19728.923641  12210.467957 -13470.222474   -673.581410 10  8  7 115       
PG12 -10569.474140 -18494.098540  15861.573149    389.398941  7  4     84       
PG13   1504.591777 -16705.182772 -20733.319979    -59.640071  7  5  6 108       
PG14 -15035.775356  18206.145979  12264.028563    -49.199040  8  4  4  89       
PG15 -10745.901027 -11847.138915 -21369.504558   -337.237709  5  4  6 125       
PG16    -75.460048  26340.673624   -314.322836     19.086990  7  7  9  85       
PG17  20476.758203 -16133.757611   4897.389356   -197.186958  9  3  6  85       
PG18 -15268.822765   4315.163287 -20731.348952    583.395907  8  6  7 118       
PG19  17578.636864 -17215.178228  10137.893476   -518.244234  7  5  6 100       
PG20 -13788.612795 -17576.853639 -14512.360713    450.380624  9  7  9 108       
PG21 -23382.022401   -980.579269 -11968.557774   -529.012154  9  6  7 108       
PG22  11311.987014  20887.162319  12022.157146    164.172009  8  8  5  83       
PG23  16990.160468   5880.013546  19892.157256   -199.528525  5  5  5  96       
PG24 -20742.743588 -15206.881962  -7158.755043    -27.439676  9  6 10 114       
PG25 -14788.194276  -4600.502772  21478.299488   -298.366865  8  8  5 106       
PG26  -5253.656167  24003.430425  10007.379746   -510.145988  5  7  7 103       
PG27  -4784.569652  18386.993851 -18518.781953    178.179770  5  5  6  84       
PG28  12490.823328 -13272.901851 -18671.684665    573.791089 11  8  7  64       
PG29 -22207.442788   1795.682824  14442.687851    639.118696  7  5  8 119       
PG30  18805.782954  -4267.362370 -18314.058927    158.953686  3  7  5  92       
PG31  -9176.926334  12126.481296  21886.539211    231.498518  8  4  5 109       
PG32 -20764.102575  16316.696305   2712.920466   -237.329099  5  5  4 101       
*  2016 12 12 12 15  0.00000000
PG01  21354.651006  14380.548112  -7141.169484     43.379635  7  3  8  78       
PG02  -1405.887280 -16750.275184  21105.447890    511.698842  8  5  2 102       
PG03  12706.775125  18159.698579  14633.144849   -102.385502  5  7  2 104       
PG04  14960.270964  16956.952575 -14515.868272 999999.999999
PG05  -1923.717464 -26247.578592   2564.402919    -72.604043  7  5  5  87       
PG06  12015.085093 -10812.232115  21087.066618    284.948282  6  1  2  79       
PG07  25137.817058   5781.020042  -7027.372187    402.788804 11  4  7 104       
PG08   7305.008185  13346.904734 -21706.142248    -42.175355  3  7  4  83       
PG09  21949.253064  -4232.512215  14325.346515    262.160629  5  6  3  88       
PG10 -11625.336194  14246.637685 -19119.056497   -115.992418  6  3  3 118       
PG11  18129.486101  12441.063325 -15448.289065   -673.581729  9  8  7 123       
PG12 -10519.535087 -20198.717357  13705.014425    389.398817  8  5     96       
PG13   3539.287356 -17734.100696 -19598.406603    -59.641776  8  5  6  99       
PG14 -16203.108130  18655.376497   9787.744924    -49.200317  8  4  2 105       
PG15  -8859.797270 -13365.587139 -21305.431645   -337.238424  6  4  6 115       
PG16   -279.927960  26200.635945   2618.822328     19.087970  7  7  9  88       
PG17  20893.436386 -16149.861509   2031.593466   -197.186513 10  4  6  88       
PG18 -15633.089356   1831.923765 -20845.735607    583.398789  9  6  8 113       
PG19  18561.288104 -17579.064552   7512.785018   -518.243521  8  5  6  93       
PG20 -13806.681641 -19123.594249 -12354.435486    450.382121  8  6  8 104       
PG21 -24505.531227  -1751.090238  -9558.428662   -529.011749  9  5  7 121       
PG22  11166.757842  22136.778342   9629.714104    164.162092  8  8  5  74       
PG23  15185.832079   7281.098113  20835.940918   -199.529773  5  6  5  95       
PG24 -19764.780560 -15068.712649  -9749.558233    -27.440004  9  6 10 122       
PG25 -14968.054097  -7026.341229  20705.383354   -298.372982  8  8  5  96       
PG26  -5615.370064  22748.529376  12452.054431   -510.148967  4  7  6 102       
PG27  -6502.363826  19454.732007 -16806.249199    178.184604  5  4  6  79       
PG28  12626.638153 -10940.955424 -20002.072460    573.793458 11  8  6  73       
PG29 -20790.529256    729.619881  16501.051921    639.117353  8  5  7 114       
PG30  20494.087041  -3183.451063 -16657.975803    158.954302  4  6  5  96       
PG31 -11369.404211  11021.805160  21469.487904    231.496643  8  5  5  99       
PG32 -21037.018151  16189.895890   -135.575773   -237.343408  4  5  4 100       
*  2016 12 12 12 30  0.00000000
PG01  20397.396611  14229.108823  -9771.342478     43.380735  8  4  8 119       
PG02    837.742001 -16055.029048  21648.638726    511.693673  7  5  1  83       
PG03  12755.243729  19720.806928  12403.040612   -102.386872  5  8  3 100       
PG04  13287.146995  16579.405157 -16480.816068 999999.999999
PG05  -1537.897268 -25842.893992   5353.313958    -72.601862  7  5  6  96       
PG06  14193.643516  -9912.273439  20154.487292    284.952777  6  2  3  64       
PG07  25670.793307   6220.071277  -4285.787622    402.785820 11  5  7  99       
PG08   5380.689976  14895.891448 -21252.031887    -42.176282  2  7  5  74       
PG09  20721.507121  -2957.646611  16329.302030    262.167294  5  6  3  73       
PG10 -12109.352082  12034.622055 -20309.642209   -115.992438  7  2  4 114       
PG11  16341.223987  12740.846350 -17169.650846   -673.582496  9  8  7  99       
PG12 -10541.057832 -21644.834366  11313.095656    389.398799  8  5     93       
PG13   5391.749653 -18792.899943 -18130.274626    -59.643711  9  5  5 110       
PG14 -17109.272069  19000.308004   7143.361330    -49.201763  8  3    109       
PG15  -7065.312408 -14955.871316 -20879.081810   -337.239577  6  4  5 112       
PG16   -520.175443  25739.253197   5505.710926     19.089291  6  6  9  96       
PG17  21046.185266 -15992.221713   -869.431300   -197.185801 10  4  6  73       
PG18 -16105.964012   -621.612132 -20583.078140    583.401220  9  6  8 106       
PG19  19266.647568 -17829.479157   4759.576178   -518.242886  8  6  6  84       
PG20 -13835.038496 -20422.468786  -9985.477124    450.383910  7  6  8  84       
PG21 -25393.693716  -2366.118292  -6979.991584   -529.010744 10  4  8 111       
PG22  11024.771637  23120.659885   7072.262971    164.151860  8  7  6  58       
PG23  13385.681197   8828.153910  21430.354870   -199.530571  6  6  5  86       
PG24 -18515.405292 -14886.076986 -12175.133847    -27.440148  9  5 10 118       
PG25 -15263.405930  -9329.284863  19573.662846   -298.379133  8  8  6 102       
PG26  -6084.976234  21253.010333  14681.811425   -510.151836  4  7  6 113       
PG27  -7997.958579  20480.568267 -14803.138458    178.189406  5  4  6  91       
PG28  12901.317016  -8483.600428 -20968.209074    573.795941 11  9  6  94       
PG29 -19258.047317   -539.728151  18275.225802    639.115278  9  6  7 125       
PG30  22050.240885  -2271.873067 -14716.551945    158.954880  5  5  4 103       
PG31 -13553.022283  10064.749828  20687.846585    231.494614  8  5  4 103       
PG32 -21066.480338  15873.172676  -2981.730914   -237.357715  3  5  3 100       
EOF
